NORAD_CAT_ID,OBJECT_NAME,OBJECT_TYPE,EPOCH,MEAN_MOTION,ECCENTRICITY,INCLINATION,RA_OF_ASC_NODE,ARG_OF_PERICENTER,MEAN_ANOMALY,BSTAR,MEAN_MOTION_DOT,MEAN_MOTION_DDOT,TLE_LINE0,TLE_LINE1,TLE_LINE2,SEMIMAJOR_AXIS,PERIOD,APOGEE,PERIGEE,DECAYED
50815.0,STARLINK-3234,PAYLOAD,2024-06-18 13:39:42,15.08842987,0.0001293,53.2158,113.349,85.2566,274.8574,-2.2371e-05,-6.44e-06,0.0,0 STARLINK-3234,1 50815U 22001N   24170.56924424 -.00000644  00000-0 -22371-4 0  9999,2 50815  53.2158 113.3490 0001293  85.2566 274.8574 15.08842987135438,6917.871,95.437,540.631,538.842,0.0
50815.0,STARLINK-3234,PAYLOAD,2024-06-19 02:22:48,15.08829939,0.0001381,53.2164,110.9695,88.7965,271.3185,3.0217e-05,1.93e-06,0.0,0 STARLINK-3234,1 50815U 22001N   24171.09917254  .00000193  00000-0  30217-4 0  9996,2 50815  53.2164 110.9695 0001381  88.7965 271.3185 15.08829939136785,6917.911,95.438,540.732,538.821,0.0
50815.0,STARLINK-3234,PAYLOAD,2024-06-19 05:33:34,15.08838142,0.0001416,53.216,110.3747,93.572,266.5434,1.6538e-05,-2.5e-07,0.0,0 STARLINK-3234,1 50815U 22001N   24171.23164808 -.00000025  00000-0  16538-4 0  9996,2 50815  53.2160 110.3747 0001416  93.5720 266.5434 15.08838142136807,6917.886,95.438,540.731,538.771,0.0
50815.0,STARLINK-3234,PAYLOAD,2024-06-19 13:30:30,15.0883763,0.0001493,53.217,108.8871,95.9236,264.1927,1.8473e-05,6e-08,0.0,0 STARLINK-3234,1 50815U 22001N   24171.56284853  .00000006  00000-0  18473-4 0  9993,2 50815  53.2170 108.8871 0001493  95.9236 264.1927 15.08837630135587,6917.888,95.438,540.785,538.72,0.0
50815.0,STARLINK-3234,PAYLOAD,2024-06-19 23:02:48,15.08839401,0.0001486,53.2158,107.1044,91.8006,268.3156,-9.4858e-06,-4.39e-06,0.0,0 STARLINK-3234,1 50815U 22001N   24171.96028851 -.00000439  00000-0 -94858-5 0  9995,2 50815  53.2158 107.1044 0001486  91.8006 268.3156 15.08839401135644,6917.882,95.438,540.775,538.719,0.0
50815.0,STARLINK-3234,PAYLOAD,2024-06-20 02:13:34,15.08845124,0.000154,53.2167,106.5086,96.1973,263.9195,-3.6319e-05,-8.66e-06,0.0,0 STARLINK-3234,1 50815U 22001N   24172.09276593 -.00000866  00000-0 -36319-4 0  9999,2 50815  53.2167 106.5086 0001540  96.1973 263.9195 15.08845124135660,6917.865,95.437,540.795,538.664,0.0
50815.0,STARLINK-3234,PAYLOAD,2024-06-20 22:53:36,15.08833643,0.0001664,53.2166,102.6427,97.1519,262.9662,8.4761e-06,-1.53e-06,0.0,0 STARLINK-3234,1 50815U 22001N   24172.95389243 -.00000153  00000-0  84761-5 0  9994,2 50815  53.2166 102.6427 0001664  97.1519 262.9662 15.08833643135794,6917.9,95.438,540.916,538.614,0.0
50815.0,STARLINK-3234,PAYLOAD,2024-06-21 00:28:59,15.08834368,0.0001667,53.2166,102.3454,96.8255,263.2927,1.3991e-05,-6.5e-07,0.0,0 STARLINK-3234,1 50815U 22001N   24173.02013202 -.00000065  00000-0  13991-4 0  9990,2 50815  53.2166 102.3454 0001667  96.8255 263.2927 15.08834368137073,6917.898,95.438,540.916,538.609,0.0
50815.0,STARLINK-3234,PAYLOAD,2024-06-21 05:15:08,15.08838007,0.0001603,53.216,101.4557,87.7923,272.3253,1.2157e-05,-9.5e-07,0.0,0 STARLINK-3234,1 50815U 22001N   24173.21885096 -.00000095  00000-0  12157-4 0  9995,2 50815  53.2160 101.4557 0001603  87.7923 272.3253 15.08838007135831,6917.886,95.438,540.86,538.643,0.0
50815.0,STARLINK-3234,PAYLOAD,2024-06-21 22:44:23,15.08835485,0.0001643,53.216,98.1846,88.2248,271.8932,7.424e-06,-1.7e-06,0.0,0 STARLINK-3234,1 50815U 22001N   24173.94749426 -.00000170  00000-0  74240-5 0  9997,2 50815  53.2160  98.1846 0001643  88.2248 271.8932 15.08835485135941,6917.894,95.438,540.896,538.623,0.0
50815.0,STARLINK-3234,PAYLOAD,2024-06-22 01:55:09,15.08838087,0.0001614,53.2166,97.5885,86.7343,273.3834,1.4543e-05,-5.7e-07,0.0,0 STARLINK-3234,1 50815U 22001N   24174.07997264 -.00000057  00000-0  14543-4 0  9990,2 50815  53.2166  97.5885 0001614  86.7343 273.3834 15.08838087137233,6917.886,95.438,540.868,538.635,0.0
50815.0,STARLINK-3234,PAYLOAD,2024-06-22 22:35:10,15.0883738,0.0001544,53.2167,93.7232,86.0018,274.115,2.2215e-05,6.6e-07,0.0,0 STARLINK-3234,1 50815U 22001N   24174.94109450  .00000066  00000-0  22215-4 0  9992,2 50815  53.2167  93.7232 0001544  86.0018 274.1150 15.08837380136090,6917.888,95.438,540.822,538.685,0.0
50815.0,STARLINK-3234,PAYLOAD,2024-06-23 19:15:11,15.08839885,0.0001555,53.2176,89.8585,97.9637,262.1532,1.9182e-05,1.7e-07,0.0,0 STARLINK-3234,1 50815U 22001N   24175.80221375  .00000017  00000-0  19182-4 0  9994,2 50815  53.2176  89.8585 0001555  97.9637 262.1532 15.08839885137495,6917.881,95.438,540.821,538.67,0.0
50815.0,STARLINK-3234,PAYLOAD,2024-06-23 22:25:57,15.08842004,0.0001622,53.2179,89.2637,104.9467,255.1704,3.9069e-05,3.34e-06,0.0,0 STARLINK-3234,1 50815U 22001N   24175.93469117  .00000334  00000-0  39069-4 0  9994,2 50815  53.2179  89.2637 0001622 104.9467 255.1704 15.08842004136247,6917.874,95.437,540.861,538.617,0.0
50815.0,STARLINK-3234,PAYLOAD,2024-06-24 03:12:06,15.08847958,0.0001569,53.2179,88.3722,96.0683,264.0488,8.0707e-05,9.97e-06,0.0,0 STARLINK-3234,1 50815U 22001N   24176.13340612  .00000997  00000-0  80707-4 0  9995,2 50815  53.2179  88.3722 0001569  96.0683 264.0488 15.08847958137548,6917.856,95.437,540.806,538.636,0.0
50815.0,STARLINK-3234,PAYLOAD,2024-06-25 01:27:31,15.08835218,0.000155,53.2173,84.2074,123.8439,236.2701,-1.8559e-05,-5.83e-06,0.0,0 STARLINK-3234,1 50815U 22001N   24177.06077613 -.00000583  00000-0 -18559-4 0  9995,2 50815  53.2173  84.2074 0001550 123.8439 236.2701 15.08835218137685,6917.895,95.438,540.832,538.688,0.0
50815.0,STARLINK-3234,PAYLOAD,2024-06-25 22:07:31,15.08845693,0.000138,53.2166,80.3418,127.1678,232.944,4.318e-07,-2.81e-06,0.0,0 STARLINK-3234,1 50815U 22001N   24177.92188838 -.00000281  00000-0  43180-6 0  9996,2 50815  53.2166  80.3418 0001380 127.1678 232.9440 15.08845693136544,6917.863,95.437,540.683,538.773,0.0
50815.0,STARLINK-3234,PAYLOAD,2024-06-26 01:18:17,15.08851727,0.0001679,53.2177,79.7476,75.5167,284.6011,4.8662e-05,4.87e-06,0.0,0 STARLINK-3234,1 50815U 22001N   24178.05436668  .00000487  00000-0  48662-4 0  9993,2 50815  53.2177  79.7476 0001679  75.5167 284.6011 15.08851727137838,6917.845,95.437,540.871,538.548,0.0
50815.0,STARLINK-3234,PAYLOAD,2024-06-26 23:33:41,15.08837153,0.000129,53.2158,75.5873,120.0761,240.0359,-1.1806e-05,-4.76e-06,0.0,0 STARLINK-3234,1 50815U 22001N   24178.98173494 -.00000476  00000-0 -11806-4 0  9990,2 50815  53.2158  75.5873 0001290 120.0761 240.0359 15.08837153137970,6917.889,95.438,540.646,538.862,0.0
50815.0,STARLINK-3234,PAYLOAD,2024-06-27 20:13:43,15.08799996,0.0001433,53.217,71.7199,106.2679,253.8471,0.00043413,6.621e-05,0.0,0 STARLINK-3234,1 50815U 22001N   24179.84285940  .00006621  00000-0  43413-3 0  9990,2 50815  53.2170  71.7199 0001433 106.2679 253.8471 15.08799996138101,6918.003,95.44,540.859,538.876,0.0
50815.0,STARLINK-3234,PAYLOAD,2024-06-27 21:49:06,15.08834912,0.0001212,53.2171,71.4229,91.8676,268.2455,2.2526e-05,7.1e-07,0.0,0 STARLINK-3234,1 50815U 22001N   24179.90909774  .00000071  00000-0  22526-4 0  9991,2 50815  53.2171  71.4229 0001212  91.8676 268.2455 15.08834912136843,6917.896,95.438,540.599,538.922,0.0
50815.0,STARLINK-3234,PAYLOAD,2024-06-27 23:24:28,15.0884628,0.0001418,53.2173,71.1257,91.5646,268.5509,-7.6622e-05,-1.507e-05,0.0,0 STARLINK-3234,1 50815U 22001N   24179.97533544 -.00001507  00000-0 -76622-4 0  9999,2 50815  53.2173  71.1257 0001418  91.5646 268.5509 15.08846280138122,6917.861,95.437,540.707,538.745,0.0
50815.0,STARLINK-3234,PAYLOAD,2024-06-28 23:15:14,15.08857505,0.000133,53.2174,66.6654,86.6553,273.4592,0.00022194,3.248e-05,0.0,0 STARLINK-3234,1 50815U 22001N   24180.96891668  .00003248  00000-0  22194-3 0  9990,2 50815  53.2174  66.6654 0001330  86.6553 273.4592 15.08857505137003,6917.827,95.436,540.612,538.772,0.0
50815.0,STARLINK-3234,PAYLOAD,2024-06-29 19:55:18,15.08820396,0.0001265,53.2175,62.7986,103.8529,256.2604,-0.00010326,-1.93e-05,0.0,0 STARLINK-3234,1 50815U 22001N   24181.83007429 -.00001930  00000-0 -10326-3 0  9993,2 50815  53.2175  62.7986 0001265 103.8529 256.2604 15.08820396138407,6917.94,95.439,540.68,538.93,0.0
50815.0,STARLINK-3234,PAYLOAD,2024-06-29 21:30:41,15.08820949,0.00014,53.2175,62.5011,111.1813,248.9329,-9.8719e-05,-1.858e-05,0.0,0 STARLINK-3234,1 50815U 22001N   24181.89631426 -.00001858  00000-0 -98719-4 0  9991,2 50815  53.2175  62.5011 0001400 111.1813 248.9329 15.08820949137149,6917.939,95.439,540.772,538.835,0.0
50815.0,STARLINK-3234,PAYLOAD,2024-06-30 08:38:23,15.08832806,0.0001328,53.2176,60.4211,111.3168,248.7966,-5.7509e-05,-1.203e-05,0.0,0 STARLINK-3234,1 50815U 22001N   24182.35998843 -.00001203  00000-0 -57509-4 0  9998,2 50815  53.2176  60.4211 0001328 111.3168 248.7966 15.08832806138481,6917.902,95.438,540.686,538.849,0.0
50815.0,STARLINK-3234,PAYLOAD,2024-06-30 14:59:55,15.08845784,0.0001104,53.2171,59.23,94.4761,265.6357,-0.00012433,-2.266e-05,0.0,0 STARLINK-3234,1 50815U 22001N   24182.62494369 -.00002266  00000-0 -12433-3 0  9998,2 50815  53.2171  59.2300 0001104  94.4761 265.6357 15.08845784137258,6917.863,95.437,540.491,538.964,0.0
50815.0,STARLINK-3234,PAYLOAD,2024-06-30 21:21:26,15.08855928,0.0001141,53.2165,58.0412,96.5712,263.541,-2.6332e-05,-7.07e-06,0.0,0 STARLINK-3234,1 50815U 22001N   24182.88989429 -.00000707  00000-0 -26332-4 0  9994,2 50815  53.2165  58.0412 0001141  96.5712 263.5410 15.08855928138565,6917.832,95.437,540.486,538.907,0.0
50815.0,STARLINK-3234,PAYLOAD,2024-06-30 22:56:49,15.08858211,0.0001094,53.2163,57.7444,97.5677,262.544,-3.2595e-08,-2.88e-06,0.0,0 STARLINK-3234,1 50815U 22001N   24182.95612981 -.00000288  00000-0 -32595-7 0  9993,2 50815  53.2163  57.7444 0001094  97.5677 262.5440 15.08858211137303,6917.825,95.436,540.447,538.933,0.0
50815.0,STARLINK-3234,PAYLOAD,2024-07-01 08:29:08,15.08856284,0.0001047,53.2164,55.9591,84.0966,276.0146,3.2454e-07,-2.83e-06,0.0,0 STARLINK-3234,1 50815U 22001N   24183.35356824 -.00000283  00000-0  32454-6 0  9996,2 50815  53.2164  55.9591 0001047  84.0966 276.0146 15.08856284137364,6917.831,95.437,540.42,538.971,0.0
